OBJECT_NAME,OBJECT_ID,EPOCH,MEAN_MOTION,ECCENTRICITY,INCLINATION,RA_OF_ASC_NODE,ARG_OF_PERICENTER,MEAN_ANOMALY,EPHEMERIS_TYPE,CLASSIFICATION_TYPE,NORAD_CAT_ID,ELEMENT_SET_NO,REV_AT_EPOCH,BSTAR,MEAN_MOTION_DOT,MEAN_MOTION_DDOT
PERSEUS-M1,2014-033AF,2026-05-19T01:35:31.744896,14.95525405,.0012687,97.9635,82.7255,40.5346,319.6817,0,U,40039,999,64628,.12754E-3,.1354E-4,0
POLYITAN-1,2014-033AJ,2026-05-18T19:17:58.762176,15.32154281,.00056968,98.0962,162.3101,240.0236,120.0439,0,U,40042,999,64909,.38316913E-3,.11817E-3,0
TIGRISAT,2014-033AK,2026-05-18T09:39:30.507552,14.85021879,.00497258,97.7798,289.1062,170.8027,189.4111,0,U,40043,999,64120,.1639485E-3,.1375E-4,0
AEROCUBE 6A,2014-033AM,2026-05-18T21:34:03.118080,14.97756867,.0040146,97.7224,306.1714,112.7205,247.8268,0,U,40045,999,64223,.30208E-3,.3543E-4,0
AEROCUBE 6B,2014-033AN,2026-05-19T04:42:36.592704,14.99179016,.0038576,97.7178,306.1952,105.0547,255.4949,0,U,40046,999,64241,.3136E-3,.3816E-4,0
CANX-4,2014-034C,2026-05-19T04:07:51.770208,14.81204639,.0014103,98.3158,13.4156,103.0014,257.2773,0,U,40055,999,64023,.76736E-4,.541E-5,0
CANX-5,2014-034D,2026-05-19T02:28:48.790272,14.81221868,.001409,98.3161,13.3861,103.3863,256.8920,0,U,40056,999,63103,.82201E-4,.584E-5,0
UKUBE-1,2014-037F,2026-05-18T22:36:58.590720,15.13034237,.0000398,98.4241,139.1552,132.8085,227.3177,0,U,40074,999,64413,.32578E-3,.5679E-4,0
BRITE-PL2 (HEWELIUSZ),2014-049B,2026-05-19T01:09:32.217120,14.94470735,.0013633,97.9066,250.8315,200.8084,159.2583,0,U,40119,999,63709,.13932E-3,.1446E-4,0
AEROCUBE 5C,2015-058B,2026-05-19T04:51:23.063328,14.91274358,.0129933,64.7681,352.7496,74.6674,286.8754,0,U,40965,999,36133,.17572E-3,.1881E-4,0
AEROCUBE 7,2015-058C,2026-05-18T19:30:25.719552,14.95480192,.01196888,64.7625,336.8066,73.4969,287.9256,0,U,40966,999,36156,.24125975E-3,.2909E-4,0
FOX-1A (AO-85),2015-058D,2026-05-18T15:16:53.001984,14.90780838,.01292011,64.7765,10.8054,68.1875,293.2924,0,U,40967,999,10916,.19406215E-3,.2064E-4,0
SINOD-D 1,2015-058E,2026-05-19T04:41:25.971072,14.95660609,.0117746,64.7760,349.6876,64.7204,296.6056,0,U,40968,999,11232,.22633E-3,.2718E-4,0
SNAP-3 ALICE,2015-058G,2026-05-19T04:51:32.054112,15.54070642,.0033408,64.7514,203.6263,26.7954,333.4905,0,U,40970,999,11237,.81458E-3,.54561E-3,0
LMRST-SAT,2015-058H,2026-05-19T01:18:08.559936,14.90409081,.0130979,64.7770,5.7913,70.0469,291.4696,0,U,40971,999,10921,.20778E-3,.221E-4,0
SNAP-3 EDDIE,2015-058J,2026-05-18T13:43:08.023296,15.55164174,.0033654,64.7433,196.7243,30.9859,329.3260,0,U,40972,999,11441,.68228485E-3,.47515E-3,0
PROPCUBE 3,2015-058K,2026-05-18T19:49:57.946368,14.94042196,.01230876,64.7689,344.2560,71.6205,289.8247,0,U,40973,999,11041,.22813731E-3,.2654E-4,0
BISONSAT,2015-058L,2026-05-19T01:42:22.454208,15.15557937,.0078616,64.7603,267.7273,59.5998,301.2866,0,U,40974,999,11120,.37996E-3,.7625E-4,0
SNAP-3 JIMI,2015-058M,2026-05-18T21:30:08.632800,15.01978122,.0105068,64.7649,312.4251,67.5350,293.6852,0,U,40975,999,10982,.28176E-3,.3981E-4,0
PROPCUBE 1 (FLORA),2015-058N,2026-05-18T23:34:39.087840,14.89040113,.0129771,64.7760,25.7378,72.3574,289.1659,0,U,40976,999,11191,.2024E-3,.2061E-4,0
SINOD-D 3,2015-058P,2026-05-18T22:04:46.621920,14.93773336,.0118241,64.7735,7.1960,69.8344,291.5442,0,U,40977,999,11038,.25181E-3,.2892E-4,0
HORYU-4,2016-012D,2026-05-19T03:00:44.794944,15.79713853,.0004568,30.9885,289.5778,77.6854,282.4315,0,U,41340,999,56619,.76965E-3,.150174E-2,0
RAVAN,2016-067B,2026-05-19T04:21:05.939136,15.51799638,.0007191,97.9931,25.4675,103.4284,256.7768,0,U,41849,999,52319,.48839E-3,.29159E-3,0
CELTEE 1,2016-067C,2026-05-18T20:05:46.383360,15.19364275,.00015134,98.0706,3.4044,56.9062,303.2316,0,U,41850,999,52142,.17675541E-3,.366E-4,0
OPTICUBE 04,2016-067D,2026-05-19T02:42:31.745952,15.09523195,.0014861,98.0726,349.8781,211.7232,148.3101,0,U,41851,999,52078,.90095E-4,.1376E-4,0
AEROCUBE 8D,2016-067E,2026-05-19T03:18:39.008736,15.23949269,.0002332,98.0715,7.1041,213.3170,146.7918,0,U,41852,999,52164,.18093E-3,.4294E-4,0
AEROCUBE 8C,2016-067F,2026-05-19T04:01:19.266240,15.24188834,.0006056,98.0585,4.4015,147.5137,212.6472,0,U,41853,999,52164,.19476E-3,.4664E-4,0
CORVUS BC2,2017-042X,2026-05-18T21:31:55.899264,15.06088173,.0012378,97.4040,301.3956,205.2843,154.7781,0,U,42846,999,48265,.11344629E-3,.16E-4,0
CORVUS BC1,2017-042Y,2026-05-18T21:28:57.774432,15.06258703,.00119071,97.4070,302.1884,180.9014,179.2195,0,U,42847,999,48268,.10785812E-3,.1525E-4,0
MAKERSAT 0,2017-073D,2026-05-18T21:48:14.558976,15.30778554,.0110587,97.4663,21.2218,18.3053,342.2118,0,U,43016,999,46198,.46599E-3,.16695E-3,0
